<?xml version="1.0" encoding="UTF-8"?>
<ndm xmlns:xsi="http://www.w3.org/2001/XMLSchema-instance" xsi:noNamespaceSchemaLocation="https://sanaregistry.org/r/ndmxml_unqualified/ndmxml-2.0.0-master-2.0.xsd">
<omm id="CCSDS_OMM_VERS" version="2.0">
<header><CREATION_DATE/><ORIGINATOR/></header><body><segment><metadata><OBJECT_NAME>ORBCOMM-X</OBJECT_NAME><OBJECT_ID>1991-050C</OBJECT_ID><CENTER_NAME>EARTH</CENTER_NAME><REF_FRAME>TEME</REF_FRAME><TIME_SYSTEM>UTC</TIME_SYSTEM><MEAN_ELEMENT_THEORY>SGP4</MEAN_ELEMENT_THEORY></metadata><data><meanElements><EPOCH>2024-09-25T22:10:29.665344</EPOCH><MEAN_MOTION>14.42756725</MEAN_MOTION><ECCENTRICITY>.0002468</ECCENTRICITY><INCLINATION>98.3801</INCLINATION><RA_OF_ASC_NODE>335.4907</RA_OF_ASC_NODE><ARG_OF_PERICENTER>260.5042</ARG_OF_PERICENTER><MEAN_ANOMALY>99.5869</MEAN_ANOMALY></meanElements><tleParameters><EPHEMERIS_TYPE>0</EPHEMERIS_TYPE><CLASSIFICATION_TYPE>U</CLASSIFICATION_TYPE><NORAD_CAT_ID>21576</NORAD_CAT_ID><ELEMENT_SET_NO>999</ELEMENT_SET_NO><REV_AT_EPOCH>74400</REV_AT_EPOCH><BSTAR>.31042E-3</BSTAR><MEAN_MOTION_DOT>.991E-5</MEAN_MOTION_DOT><MEAN_MOTION_DDOT>0</MEAN_MOTION_DDOT></tleParameters></data></segment></body></omm>
<omm id="CCSDS_OMM_VERS" version="2.0">
<header><CREATION_DATE/><ORIGINATOR/></header><body><segment><metadata><OBJECT_NAME>ORBCOMM FM01</OBJECT_NAME><OBJECT_ID>1995-017A</OBJECT_ID><CENTER_NAME>EARTH</CENTER_NAME><REF_FRAME>TEME</REF_FRAME><TIME_SYSTEM>UTC</TIME_SYSTEM><MEAN_ELEMENT_THEORY>SGP4</MEAN_ELEMENT_THEORY></metadata><data><meanElements><EPOCH>2024-09-25T12:42:59.897952</EPOCH><MEAN_MOTION>14.83087588</MEAN_MOTION><ECCENTRICITY>.0005925</ECCENTRICITY><INCLINATION>69.9686</INCLINATION><RA_OF_ASC_NODE>11.0489</RA_OF_ASC_NODE><ARG_OF_PERICENTER>343.0266</ARG_OF_PERICENTER><MEAN_ANOMALY>17.0686</MEAN_ANOMALY></meanElements><tleParameters><EPHEMERIS_TYPE>0</EPHEMERIS_TYPE><CLASSIFICATION_TYPE>U</CLASSIFICATION_TYPE><NORAD_CAT_ID>23545</NORAD_CAT_ID><ELEMENT_SET_NO>999</ELEMENT_SET_NO><REV_AT_EPOCH>57351</REV_AT_EPOCH><BSTAR>.22753E-2</BSTAR><MEAN_MOTION_DOT>.18534E-3</MEAN_MOTION_DOT><MEAN_MOTION_DDOT>0</MEAN_MOTION_DDOT></tleParameters></data></segment></body></omm>
<omm id="CCSDS_OMM_VERS" version="2.0">
<header><CREATION_DATE/><ORIGINATOR/></header><body><segment><metadata><OBJECT_NAME>ORBCOMM FM02</OBJECT_NAME><OBJECT_ID>1995-017B</OBJECT_ID><CENTER_NAME>EARTH</CENTER_NAME><REF_FRAME>TEME</REF_FRAME><TIME_SYSTEM>UTC</TIME_SYSTEM><MEAN_ELEMENT_THEORY>SGP4</MEAN_ELEMENT_THEORY></metadata><data><meanElements><EPOCH>2024-09-25T20:37:55.742880</EPOCH><MEAN_MOTION>14.82820898</MEAN_MOTION><ECCENTRICITY>.0007533</ECCENTRICITY><INCLINATION>69.9694</INCLINATION><RA_OF_ASC_NODE>29.8650</RA_OF_ASC_NODE><ARG_OF_PERICENTER>343.7424</ARG_OF_PERICENTER><MEAN_ANOMALY>16.3484</MEAN_ANOMALY></meanElements><tleParameters><EPHEMERIS_TYPE>0</EPHEMERIS_TYPE><CLASSIFICATION_TYPE>U</CLASSIFICATION_TYPE><NORAD_CAT_ID>23546</NORAD_CAT_ID><ELEMENT_SET_NO>999</ELEMENT_SET_NO><REV_AT_EPOCH>57285</REV_AT_EPOCH><BSTAR>.24382E-2</BSTAR><MEAN_MOTION_DOT>.19747E-3</MEAN_MOTION_DOT><MEAN_MOTION_DDOT>0</MEAN_MOTION_DDOT></tleParameters></data></segment></body></omm>
<omm id="CCSDS_OMM_VERS" version="2.0">
<header><CREATION_DATE/><ORIGINATOR/></header><body><segment><metadata><OBJECT_NAME>ORBCOMM FM08</OBJECT_NAME><OBJECT_ID>1997-084A</OBJECT_ID><CENTER_NAME>EARTH</CENTER_NAME><REF_FRAME>TEME</REF_FRAME><TIME_SYSTEM>UTC</TIME_SYSTEM><MEAN_ELEMENT_THEORY>SGP4</MEAN_ELEMENT_THEORY></metadata><data><meanElements><EPOCH>2024-09-25T18:58:25.660992</EPOCH><MEAN_MOTION>14.43636323</MEAN_MOTION><ECCENTRICITY>.0008054</ECCENTRICITY><INCLINATION>45.0132</INCLINATION><RA_OF_ASC_NODE>195.2928</RA_OF_ASC_NODE><ARG_OF_PERICENTER>354.0173</ARG_OF_PERICENTER><MEAN_ANOMALY>6.0581</MEAN_ANOMALY></meanElements><tleParameters><EPHEMERIS_TYPE>0</EPHEMERIS_TYPE><CLASSIFICATION_TYPE>U</CLASSIFICATION_TYPE><NORAD_CAT_ID>25112</NORAD_CAT_ID><ELEMENT_SET_NO>999</ELEMENT_SET_NO><REV_AT_EPOCH>40313</REV_AT_EPOCH><BSTAR>.15112E-2</BSTAR><MEAN_MOTION_DOT>.5037E-4</MEAN_MOTION_DOT><MEAN_MOTION_DDOT>0</MEAN_MOTION_DDOT></tleParameters></data></segment></body></omm>
<omm id="CCSDS_OMM_VERS" version="2.0">
<header><CREATION_DATE/><ORIGINATOR/></header><body><segment><metadata><OBJECT_NAME>ORBCOMM FM10</OBJECT_NAME><OBJECT_ID>1997-084B</OBJECT_ID><CENTER_NAME>EARTH</CENTER_NAME><REF_FRAME>TEME</REF_FRAME><TIME_SYSTEM>UTC</TIME_SYSTEM><MEAN_ELEMENT_THEORY>SGP4</MEAN_ELEMENT_THEORY></metadata><data><meanElements><EPOCH>2024-09-25T19:23:14.470368</EPOCH><MEAN_MOTION>14.43515410</MEAN_MOTION><ECCENTRICITY>.0005804</ECCENTRICITY><INCLINATION>45.0144</INCLINATION><RA_OF_ASC_NODE>197.1954</RA_OF_ASC_NODE><ARG_OF_PERICENTER>327.9389</ARG_OF_PERICENTER><MEAN_ANOMALY>32.1108</MEAN_ANOMALY></meanElements><tleParameters><EPHEMERIS_TYPE>0</EPHEMERIS_TYPE><CLASSIFICATION_TYPE>U</CLASSIFICATION_TYPE><NORAD_CAT_ID>25113</NORAD_CAT_ID><ELEMENT_SET_NO>999</ELEMENT_SET_NO><REV_AT_EPOCH>57828</REV_AT_EPOCH><BSTAR>.15384E-2</BSTAR><MEAN_MOTION_DOT>.5116E-4</MEAN_MOTION_DOT><MEAN_MOTION_DDOT>0</MEAN_MOTION_DDOT></tleParameters></data></segment></body></omm>
<omm id="CCSDS_OMM_VERS" version="2.0">
<header><CREATION_DATE/><ORIGINATOR/></header><body><segment><metadata><OBJECT_NAME>ORBCOMM FM11</OBJECT_NAME><OBJECT_ID>1997-084C</OBJECT_ID><CENTER_NAME>EARTH</CENTER_NAME><REF_FRAME>TEME</REF_FRAME><TIME_SYSTEM>UTC</TIME_SYSTEM><MEAN_ELEMENT_THEORY>SGP4</MEAN_ELEMENT_THEORY></metadata><data><meanElements><EPOCH>2024-09-25T18:29:53.524032</EPOCH><MEAN_MOTION>14.43334952</MEAN_MOTION><ECCENTRICITY>.0006633</ECCENTRICITY><INCLINATION>45.0124</INCLINATION><RA_OF_ASC_NODE>197.5736</RA_OF_ASC_NODE><ARG_OF_PERICENTER>327.6844</ARG_OF_PERICENTER><MEAN_ANOMALY>32.3600</MEAN_ANOMALY></meanElements><tleParameters><EPHEMERIS_TYPE>0</EPHEMERIS_TYPE><CLASSIFICATION_TYPE>U</CLASSIFICATION_TYPE><NORAD_CAT_ID>25114</NORAD_CAT_ID><ELEMENT_SET_NO>999</ELEMENT_SET_NO><REV_AT_EPOCH>40324</REV_AT_EPOCH><BSTAR>.15325E-2</BSTAR><MEAN_MOTION_DOT>.5077E-4</MEAN_MOTION_DOT><MEAN_MOTION_DDOT>0</MEAN_MOTION_DDOT></tleParameters></data></segment></body></omm>
<omm id="CCSDS_OMM_VERS" version="2.0">
<header><CREATION_DATE/><ORIGINATOR/></header><body><segment><metadata><OBJECT_NAME>ORBCOMM FM12</OBJECT_NAME><OBJECT_ID>1997-084D</OBJECT_ID><CENTER_NAME>EARTH</CENTER_NAME><REF_FRAME>TEME</REF_FRAME><TIME_SYSTEM>UTC</TIME_SYSTEM><MEAN_ELEMENT_THEORY>SGP4</MEAN_ELEMENT_THEORY></metadata><data><meanElements><EPOCH>2024-09-25T12:38:17.555712</EPOCH><MEAN_MOTION>14.43300387</MEAN_MOTION><ECCENTRICITY>.0005621</ECCENTRICITY><INCLINATION>45.0138</INCLINATION><RA_OF_ASC_NODE>198.4858</RA_OF_ASC_NODE><ARG_OF_PERICENTER>328.7204</ARG_OF_PERICENTER><MEAN_ANOMALY>31.3311</MEAN_ANOMALY></meanElements><tleParameters><EPHEMERIS_TYPE>0</EPHEMERIS_TYPE><CLASSIFICATION_TYPE>U</CLASSIFICATION_TYPE><NORAD_CAT_ID>25115</NORAD_CAT_ID><ELEMENT_SET_NO>999</ELEMENT_SET_NO><REV_AT_EPOCH>40300</REV_AT_EPOCH><BSTAR>.48646E-3</BSTAR><MEAN_MOTION_DOT>.1511E-4</MEAN_MOTION_DOT><MEAN_MOTION_DDOT>0</MEAN_MOTION_DDOT></tleParameters></data></segment></body></omm>
<omm id="CCSDS_OMM_VERS" version="2.0">
<header><CREATION_DATE/><ORIGINATOR/></header><body><segment><metadata><OBJECT_NAME>ORBCOMM FM09</OBJECT_NAME><OBJECT_ID>1997-084E</OBJECT_ID><CENTER_NAME>EARTH</CENTER_NAME><REF_FRAME>TEME</REF_FRAME><TIME_SYSTEM>UTC</TIME_SYSTEM><MEAN_ELEMENT_THEORY>SGP4</MEAN_ELEMENT_THEORY></metadata><data><meanElements><EPOCH>2024-09-25T19:38:30.641280</EPOCH><MEAN_MOTION>14.43250824</MEAN_MOTION><ECCENTRICITY>.0006613</ECCENTRICITY><INCLINATION>45.0138</INCLINATION><RA_OF_ASC_NODE>197.8217</RA_OF_ASC_NODE><ARG_OF_PERICENTER>314.6306</ARG_OF_PERICENTER><MEAN_ANOMALY>45.4005</MEAN_ANOMALY></meanElements><tleParameters><EPHEMERIS_TYPE>0</EPHEMERIS_TYPE><CLASSIFICATION_TYPE>U</CLASSIFICATION_TYPE><NORAD_CAT_ID>25116</NORAD_CAT_ID><ELEMENT_SET_NO>999</ELEMENT_SET_NO><REV_AT_EPOCH>40325</REV_AT_EPOCH><BSTAR>.13185E-2</BSTAR><MEAN_MOTION_DOT>.434E-4</MEAN_MOTION_DOT><MEAN_MOTION_DDOT>0</MEAN_MOTION_DDOT></tleParameters></data></segment></body></omm>

</ndm>
