ORBCOMM-X               
1 21576U 91050C   24269.92395446  .00000991  00000+0  31042-3 0  9992
2 21576  98.3801 335.4907 0002468 260.5042  99.5869 14.42756725744006
ORBCOMM FM01            
1 23545U 95017A   24269.52985993  .00018534  00000+0  22753-2 0  9995
2 23545  69.9686  11.0489 0005925 343.0266  17.0686 14.83087588573514
ORBCOMM FM02            
1 23546U 95017B   24269.85967295  .00019747  00000+0  24382-2 0  9994
2 23546  69.9694  29.8650 0007533 343.7424  16.3484 14.82820898572853
ORBCOMM FM08            
1 25112U 97084A   24269.79057478  .00005037  00000+0  15112-2 0  9995
2 25112  45.0132 195.2928 0008054 354.0173   6.0581 14.43636323403130
ORBCOMM FM10            
1 25113U 97084B   24269.80780637  .00005116  00000+0  15384-2 0  9997
2 25113  45.0144 197.1954 0005804 327.9389  32.1108 14.43515410578289
ORBCOMM FM11            
1 25114U 97084C   24269.77075838  .00005077  00000+0  15325-2 0  9995
2 25114  45.0124 197.5736 0006633 327.6844  32.3600 14.43334952403246
ORBCOMM FM12            
1 25115U 97084D   24269.52659208  .00001511  00000+0  48646-3 0  9990
2 25115  45.0138 198.4858 0005621 328.7204  31.3311 14.43300387403002
ORBCOMM FM09            
1 25116U 97084E   24269.81841020  .00004340  00000+0  13185-2 0  9990
2 25116  45.0138 197.8217 0006613 314.6306  45.4005 14.43250824403257
